<?xml version="1.0" encoding="UTF-8"?>
<kml xmlns="http://www.opengis.net/kml/2.2">
  <Document>
    <name>ATM Kaart</name>
    <description/>
    <Style id="icon-1899-0288D1-labelson">
      <IconStyle>
        <color>ffd18802</color>
        <scale>1</scale>
        <Icon>
          <href>https://www.gstatic.com/mapspro/images/stock/503-wht-blank_maps.png</href>
        </Icon>
        <hotSpot x="32" xunits="pixels" y="64" yunits="insetPixels"/>
      </IconStyle>
    </Style>
    <Style id="icon-1899-0288D1-labelson-nodesc">
      <IconStyle>
        <color>ffd18802</color>
        <scale>1</scale>
        <Icon>
          <href>https://www.gstatic.com/mapspro/images/stock/503-wht-blank_maps.png</href>
        </Icon>
        <hotSpot x="32" xunits="pixels" y="64" yunits="insetPixels"/>
      </IconStyle>
      <BalloonStyle>
        <text><![CDATA[<h3>$[name]</h3>]]></text>
      </BalloonStyle>
    </Style>
    <Style id="icon-1899-0288D1-nodesc-normal">
      <IconStyle>
        <color>ffd18802</color>
        <scale>1</scale>
        <Icon>
          <href>https://www.gstatic.com/mapspro/images/stock/503-wht-blank_maps.png</href>
        </Icon>
        <hotSpot x="32" xunits="pixels" y="64" yunits="insetPixels"/>
      </IconStyle>
      <LabelStyle>
        <scale>0</scale>
      </LabelStyle>
      <BalloonStyle>
        <text><![CDATA[<h3>$[name]</h3>]]></text>
      </BalloonStyle>
    </Style>
    <Style id="icon-1899-0288D1-nodesc-highlight">
      <IconStyle>
        <color>ffd18802</color>
        <scale>1</scale>
        <Icon>
          <href>https://www.gstatic.com/mapspro/images/stock/503-wht-blank_maps.png</href>
        </Icon>
        <hotSpot x="32" xunits="pixels" y="64" yunits="insetPixels"/>
      </IconStyle>
      <LabelStyle>
        <scale>1</scale>
      </LabelStyle>
      <BalloonStyle>
        <text><![CDATA[<h3>$[name]</h3>]]></text>
      </BalloonStyle>
    </Style>
    <StyleMap id="icon-1899-0288D1-nodesc">
      <Pair>
        <key>normal</key>
        <styleUrl>#icon-1899-0288D1-nodesc-normal</styleUrl>
      </Pair>
      <Pair>
        <key>highlight</key>
        <styleUrl>#icon-1899-0288D1-nodesc-highlight</styleUrl>
      </Pair>
    </StyleMap>
    <Style id="icon-1899-097138-labelson-nodesc">
      <IconStyle>
        <color>ff387109</color>
        <scale>1</scale>
        <Icon>
          <href>https://www.gstatic.com/mapspro/images/stock/503-wht-blank_maps.png</href>
        </Icon>
        <hotSpot x="32" xunits="pixels" y="64" yunits="insetPixels"/>
      </IconStyle>
      <BalloonStyle>
        <text><![CDATA[<h3>$[name]</h3>]]></text>
      </BalloonStyle>
    </Style>
    <Style id="icon-1899-7CB342-labelson-nodesc">
      <IconStyle>
        <color>ff42b37c</color>
        <scale>1</scale>
        <Icon>
          <href>https://www.gstatic.com/mapspro/images/stock/503-wht-blank_maps.png</href>
        </Icon>
        <hotSpot x="32" xunits="pixels" y="64" yunits="insetPixels"/>
      </IconStyle>
      <BalloonStyle>
        <text><![CDATA[<h3>$[name]</h3>]]></text>
      </BalloonStyle>
    </Style>
    <Style id="icon-1899-C2185B-nodesc-normal">
      <IconStyle>
        <color>ff5b18c2</color>
        <scale>1</scale>
        <Icon>
          <href>https://www.gstatic.com/mapspro/images/stock/503-wht-blank_maps.png</href>
        </Icon>
        <hotSpot x="32" xunits="pixels" y="64" yunits="insetPixels"/>
      </IconStyle>
      <LabelStyle>
        <scale>0</scale>
      </LabelStyle>
      <BalloonStyle>
        <text><![CDATA[<h3>$[name]</h3>]]></text>
      </BalloonStyle>
    </Style>
    <Style id="icon-1899-C2185B-nodesc-highlight">
      <IconStyle>
        <color>ff5b18c2</color>
        <scale>1</scale>
        <Icon>
          <href>https://www.gstatic.com/mapspro/images/stock/503-wht-blank_maps.png</href>
        </Icon>
        <hotSpot x="32" xunits="pixels" y="64" yunits="insetPixels"/>
      </IconStyle>
      <LabelStyle>
        <scale>1</scale>
      </LabelStyle>
      <BalloonStyle>
        <text><![CDATA[<h3>$[name]</h3>]]></text>
      </BalloonStyle>
    </Style>
    <StyleMap id="icon-1899-C2185B-nodesc">
      <Pair>
        <key>normal</key>
        <styleUrl>#icon-1899-C2185B-nodesc-normal</styleUrl>
      </Pair>
      <Pair>
        <key>highlight</key>
        <styleUrl>#icon-1899-C2185B-nodesc-highlight</styleUrl>
      </Pair>
    </StyleMap>
    <Style id="icon-1899-FF5252-nodesc-normal">
      <IconStyle>
        <color>ff5252ff</color>
        <scale>1</scale>
        <Icon>
          <href>https://www.gstatic.com/mapspro/images/stock/503-wht-blank_maps.png</href>
        </Icon>
        <hotSpot x="32" xunits="pixels" y="64" yunits="insetPixels"/>
      </IconStyle>
      <LabelStyle>
        <scale>0</scale>
      </LabelStyle>
      <BalloonStyle>
        <text><![CDATA[<h3>$[name]</h3>]]></text>
      </BalloonStyle>
    </Style>
    <Style id="icon-1899-FF5252-nodesc-highlight">
      <IconStyle>
        <color>ff5252ff</color>
        <scale>1</scale>
        <Icon>
          <href>https://www.gstatic.com/mapspro/images/stock/503-wht-blank_maps.png</href>
        </Icon>
        <hotSpot x="32" xunits="pixels" y="64" yunits="insetPixels"/>
      </IconStyle>
      <LabelStyle>
        <scale>1</scale>
      </LabelStyle>
      <BalloonStyle>
        <text><![CDATA[<h3>$[name]</h3>]]></text>
      </BalloonStyle>
    </Style>
    <StyleMap id="icon-1899-FF5252-nodesc">
      <Pair>
        <key>normal</key>
        <styleUrl>#icon-1899-FF5252-nodesc-normal</styleUrl>
      </Pair>
      <Pair>
        <key>highlight</key>
        <styleUrl>#icon-1899-FF5252-nodesc-highlight</styleUrl>
      </Pair>
    </StyleMap>
    <Style id="line-000000-1200-nodesc-normal">
      <LineStyle>
        <color>ff000000</color>
        <width>1.2</width>
      </LineStyle>
      <BalloonStyle>
        <text><![CDATA[<h3>$[name]</h3>]]></text>
      </BalloonStyle>
    </Style>
    <Style id="line-000000-1200-nodesc-highlight">
      <LineStyle>
        <color>ff000000</color>
        <width>1.8</width>
      </LineStyle>
      <BalloonStyle>
        <text><![CDATA[<h3>$[name]</h3>]]></text>
      </BalloonStyle>
    </Style>
    <StyleMap id="line-000000-1200-nodesc">
      <Pair>
        <key>normal</key>
        <styleUrl>#line-000000-1200-nodesc-normal</styleUrl>
      </Pair>
      <Pair>
        <key>highlight</key>
        <styleUrl>#line-000000-1200-nodesc-highlight</styleUrl>
      </Pair>
    </StyleMap>
    <Style id="line-0288D1-1200-nodesc-normal">
      <LineStyle>
        <color>ffd18802</color>
        <width>1.2</width>
      </LineStyle>
      <BalloonStyle>
        <text><![CDATA[<h3>$[name]</h3>]]></text>
      </BalloonStyle>
    </Style>
    <Style id="line-0288D1-1200-nodesc-highlight">
      <LineStyle>
        <color>ffd18802</color>
        <width>1.8</width>
      </LineStyle>
      <BalloonStyle>
        <text><![CDATA[<h3>$[name]</h3>]]></text>
      </BalloonStyle>
    </Style>
    <StyleMap id="line-0288D1-1200-nodesc">
      <Pair>
        <key>normal</key>
        <styleUrl>#line-0288D1-1200-nodesc-normal</styleUrl>
      </Pair>
      <Pair>
        <key>highlight</key>
        <styleUrl>#line-0288D1-1200-nodesc-highlight</styleUrl>
      </Pair>
    </StyleMap>
    <Style id="line-097138-1200-nodesc-normal">
      <LineStyle>
        <color>ff387109</color>
        <width>1.2</width>
      </LineStyle>
      <BalloonStyle>
        <text><![CDATA[<h3>$[name]</h3>]]></text>
      </BalloonStyle>
    </Style>
    <Style id="line-097138-1200-nodesc-highlight">
      <LineStyle>
        <color>ff387109</color>
        <width>1.8</width>
      </LineStyle>
      <BalloonStyle>
        <text><![CDATA[<h3>$[name]</h3>]]></text>
      </BalloonStyle>
    </Style>
    <StyleMap id="line-097138-1200-nodesc">
      <Pair>
        <key>normal</key>
        <styleUrl>#line-097138-1200-nodesc-normal</styleUrl>
      </Pair>
      <Pair>
        <key>highlight</key>
        <styleUrl>#line-097138-1200-nodesc-highlight</styleUrl>
      </Pair>
    </StyleMap>
    <Style id="line-1A237E-1200-nodesc-normal">
      <LineStyle>
        <color>ff7e231a</color>
        <width>1.2</width>
      </LineStyle>
      <BalloonStyle>
        <text><![CDATA[<h3>$[name]</h3>]]></text>
      </BalloonStyle>
    </Style>
    <Style id="line-1A237E-1200-nodesc-highlight">
      <LineStyle>
        <color>ff7e231a</color>
        <width>1.8</width>
      </LineStyle>
      <BalloonStyle>
        <text><![CDATA[<h3>$[name]</h3>]]></text>
      </BalloonStyle>
    </Style>
    <StyleMap id="line-1A237E-1200-nodesc">
      <Pair>
        <key>normal</key>
        <styleUrl>#line-1A237E-1200-nodesc-normal</styleUrl>
      </Pair>
      <Pair>
        <key>highlight</key>
        <styleUrl>#line-1A237E-1200-nodesc-highlight</styleUrl>
      </Pair>
    </StyleMap>
    <Style id="line-7CB342-1200-nodesc-normal">
      <LineStyle>
        <color>ff42b37c</color>
        <width>1.2</width>
      </LineStyle>
      <BalloonStyle>
        <text><![CDATA[<h3>$[name]</h3>]]></text>
      </BalloonStyle>
    </Style>
    <Style id="line-7CB342-1200-nodesc-highlight">
      <LineStyle>
        <color>ff42b37c</color>
        <width>1.8</width>
      </LineStyle>
      <BalloonStyle>
        <text><![CDATA[<h3>$[name]</h3>]]></text>
      </BalloonStyle>
    </Style>
    <StyleMap id="line-7CB342-1200-nodesc">
      <Pair>
        <key>normal</key>
        <styleUrl>#line-7CB342-1200-nodesc-normal</styleUrl>
      </Pair>
      <Pair>
        <key>highlight</key>
        <styleUrl>#line-7CB342-1200-nodesc-highlight</styleUrl>
      </Pair>
    </StyleMap>
    <Style id="line-9C27B0-1200-nodesc-normal">
      <LineStyle>
        <color>ffb0279c</color>
        <width>1.2</width>
      </LineStyle>
      <BalloonStyle>
        <text><![CDATA[<h3>$[name]</h3>]]></text>
      </BalloonStyle>
    </Style>
    <Style id="line-9C27B0-1200-nodesc-highlight">
      <LineStyle>
        <color>ffb0279c</color>
        <width>1.8</width>
      </LineStyle>
      <BalloonStyle>
        <text><![CDATA[<h3>$[name]</h3>]]></text>
      </BalloonStyle>
    </Style>
    <StyleMap id="line-9C27B0-1200-nodesc">
      <Pair>
        <key>normal</key>
        <styleUrl>#line-9C27B0-1200-nodesc-normal</styleUrl>
      </Pair>
      <Pair>
        <key>highlight</key>
        <styleUrl>#line-9C27B0-1200-nodesc-highlight</styleUrl>
      </Pair>
    </StyleMap>
    <Style id="line-A52714-1200-nodesc-normal">
      <LineStyle>
        <color>ff1427a5</color>
        <width>1.2</width>
      </LineStyle>
      <BalloonStyle>
        <text><![CDATA[<h3>$[name]</h3>]]></text>
      </BalloonStyle>
    </Style>
    <Style id="line-A52714-1200-nodesc-highlight">
      <LineStyle>
        <color>ff1427a5</color>
        <width>1.8</width>
      </LineStyle>
      <BalloonStyle>
        <text><![CDATA[<h3>$[name]</h3>]]></text>
      </BalloonStyle>
    </Style>
    <StyleMap id="line-A52714-1200-nodesc">
      <Pair>
        <key>normal</key>
        <styleUrl>#line-A52714-1200-nodesc-normal</styleUrl>
      </Pair>
      <Pair>
        <key>highlight</key>
        <styleUrl>#line-A52714-1200-nodesc-highlight</styleUrl>
      </Pair>
    </StyleMap>
    <Style id="line-F48FB1-1200-nodesc-normal">
      <LineStyle>
        <color>ffb18ff4</color>
        <width>1.2</width>
      </LineStyle>
      <BalloonStyle>
        <text><![CDATA[<h3>$[name]</h3>]]></text>
      </BalloonStyle>
    </Style>
    <Style id="line-F48FB1-1200-nodesc-highlight">
      <LineStyle>
        <color>ffb18ff4</color>
        <width>1.8</width>
      </LineStyle>
      <BalloonStyle>
        <text><![CDATA[<h3>$[name]</h3>]]></text>
      </BalloonStyle>
    </Style>
    <StyleMap id="line-F48FB1-1200-nodesc">
      <Pair>
        <key>normal</key>
        <styleUrl>#line-F48FB1-1200-nodesc-normal</styleUrl>
      </Pair>
      <Pair>
        <key>highlight</key>
        <styleUrl>#line-F48FB1-1200-nodesc-highlight</styleUrl>
      </Pair>
    </StyleMap>
    <Style id="line-F57C00-1200-nodesc-normal">
      <LineStyle>
        <color>ff007cf5</color>
        <width>1.2</width>
      </LineStyle>
      <BalloonStyle>
        <text><![CDATA[<h3>$[name]</h3>]]></text>
      </BalloonStyle>
    </Style>
    <Style id="line-F57C00-1200-nodesc-highlight">
      <LineStyle>
        <color>ff007cf5</color>
        <width>1.8</width>
      </LineStyle>
      <BalloonStyle>
        <text><![CDATA[<h3>$[name]</h3>]]></text>
      </BalloonStyle>
    </Style>
    <StyleMap id="line-F57C00-1200-nodesc">
      <Pair>
        <key>normal</key>
        <styleUrl>#line-F57C00-1200-nodesc-normal</styleUrl>
      </Pair>
      <Pair>
        <key>highlight</key>
        <styleUrl>#line-F57C00-1200-nodesc-highlight</styleUrl>
      </Pair>
    </StyleMap>
    <Style id="line-F9A825-1200-nodesc-normal">
      <LineStyle>
        <color>ff25a8f9</color>
        <width>1.2</width>
      </LineStyle>
      <BalloonStyle>
        <text><![CDATA[<h3>$[name]</h3>]]></text>
      </BalloonStyle>
    </Style>
    <Style id="line-F9A825-1200-nodesc-highlight">
      <LineStyle>
        <color>ff25a8f9</color>
        <width>1.8</width>
      </LineStyle>
      <BalloonStyle>
        <text><![CDATA[<h3>$[name]</h3>]]></text>
      </BalloonStyle>
    </Style>
    <StyleMap id="line-F9A825-1200-nodesc">
      <Pair>
        <key>normal</key>
        <styleUrl>#line-F9A825-1200-nodesc-normal</styleUrl>
      </Pair>
      <Pair>
        <key>highlight</key>
        <styleUrl>#line-F9A825-1200-nodesc-highlight</styleUrl>
      </Pair>
    </StyleMap>
    <Style id="poly-0288D1-1200-0-nodesc-normal">
      <LineStyle>
        <color>ffd18802</color>
        <width>1.2</width>
      </LineStyle>
      <PolyStyle>
        <color>00d18802</color>
        <fill>1</fill>
        <outline>1</outline>
      </PolyStyle>
      <BalloonStyle>
        <text><![CDATA[<h3>$[name]</h3>]]></text>
      </BalloonStyle>
    </Style>
    <Style id="poly-0288D1-1200-0-nodesc-highlight">
      <LineStyle>
        <color>ffd18802</color>
        <width>1.8</width>
      </LineStyle>
      <PolyStyle>
        <color>00d18802</color>
        <fill>1</fill>
        <outline>1</outline>
      </PolyStyle>
      <BalloonStyle>
        <text><![CDATA[<h3>$[name]</h3>]]></text>
      </BalloonStyle>
    </Style>
    <StyleMap id="poly-0288D1-1200-0-nodesc">
      <Pair>
        <key>normal</key>
        <styleUrl>#poly-0288D1-1200-0-nodesc-normal</styleUrl>
      </Pair>
      <Pair>
        <key>highlight</key>
        <styleUrl>#poly-0288D1-1200-0-nodesc-highlight</styleUrl>
      </Pair>
    </StyleMap>
    <Style id="poly-FBC02D-1200-0-nodesc-normal">
      <LineStyle>
        <color>ff2dc0fb</color>
        <width>1.2</width>
      </LineStyle>
      <PolyStyle>
        <color>002dc0fb</color>
        <fill>1</fill>
        <outline>1</outline>
      </PolyStyle>
      <BalloonStyle>
        <text><![CDATA[<h3>$[name]</h3>]]></text>
      </BalloonStyle>
    </Style>
    <Style id="poly-FBC02D-1200-0-nodesc-highlight">
      <LineStyle>
        <color>ff2dc0fb</color>
        <width>1.8</width>
      </LineStyle>
      <PolyStyle>
        <color>002dc0fb</color>
        <fill>1</fill>
        <outline>1</outline>
      </PolyStyle>
      <BalloonStyle>
        <text><![CDATA[<h3>$[name]</h3>]]></text>
      </BalloonStyle>
    </Style>
    <StyleMap id="poly-FBC02D-1200-0-nodesc">
      <Pair>
        <key>normal</key>
        <styleUrl>#poly-FBC02D-1200-0-nodesc-normal</styleUrl>
      </Pair>
      <Pair>
        <key>highlight</key>
        <styleUrl>#poly-FBC02D-1200-0-nodesc-highlight</styleUrl>
      </Pair>
    </StyleMap>
    <Style id="poly-FF5252-1200-158-nodesc-normal">
      <LineStyle>
        <color>ff5252ff</color>
        <width>1.2</width>
      </LineStyle>
      <PolyStyle>
        <color>9e5252ff</color>
        <fill>1</fill>
        <outline>1</outline>
      </PolyStyle>
      <BalloonStyle>
        <text><![CDATA[<h3>$[name]</h3>]]></text>
      </BalloonStyle>
    </Style>
    <Style id="poly-FF5252-1200-158-nodesc-highlight">
      <LineStyle>
        <color>ff5252ff</color>
        <width>1.8</width>
      </LineStyle>
      <PolyStyle>
        <color>9e5252ff</color>
        <fill>1</fill>
        <outline>1</outline>
      </PolyStyle>
      <BalloonStyle>
        <text><![CDATA[<h3>$[name]</h3>]]></text>
      </BalloonStyle>
    </Style>
    <StyleMap id="poly-FF5252-1200-158-nodesc">
      <Pair>
        <key>normal</key>
        <styleUrl>#poly-FF5252-1200-158-nodesc-normal</styleUrl>
      </Pair>
      <Pair>
        <key>highlight</key>
        <styleUrl>#poly-FF5252-1200-158-nodesc-highlight</styleUrl>
      </Pair>
    </StyleMap>
    <Folder>
      <name>SID/STAR</name>
      <Placemark>
        <name>AMS STAR 04 South</name>
        <styleUrl>#line-0288D1-1200-nodesc</styleUrl>
        <LineString>
          <tessellate>1</tessellate>
          <coordinates>
            3.654229,51.3276788,0
            3.7009209,51.8194183,0
            4.1501391,52.2061866,0
            4.6130353,52.2369745,0
            4.719637,52.2549467,0
            4.7930775,52.3071887,0
          </coordinates>
        </LineString>
      </Placemark>
      <Placemark>
        <name>AMS STAR 04 West</name>
        <styleUrl>#line-0288D1-1200-nodesc</styleUrl>
        <LineString>
          <tessellate>1</tessellate>
          <coordinates>
            3.0954667,52.6744879,0
            4.1501391,52.2061866,0
            4.6130353,52.2369745,0
            4.7192936,52.2547369,0
            4.7958533,52.3087794,0
          </coordinates>
        </LineString>
      </Placemark>
      <Placemark>
        <name>AMS STAR 04 East</name>
        <styleUrl>#line-0288D1-1200-nodesc</styleUrl>
        <LineString>
          <tessellate>1</tessellate>
          <coordinates>
            6.474787,52.6480241,0
            4.8843285,52.1738848,0
            4.7192936,52.2547369,0
            4.7958533,52.3087794,0
          </coordinates>
        </LineString>
      </Placemark>
      <Placemark>
        <name>RTM SID 06 East</name>
        <styleUrl>#line-F57C00-1200-nodesc</styleUrl>
        <LineString>
          <tessellate>1</tessellate>
          <coordinates>
            4.4399926,51.9567177,0
            4.4595321,51.9644045,0
            4.5972483,51.9986888,0
            4.682049,51.9422157,0
            5.025371,51.9341379,0
          </coordinates>
        </LineString>
      </Placemark>
      <Placemark>
        <name>RTM SID 06 West</name>
        <styleUrl>#line-F9A825-1200-nodesc</styleUrl>
        <LineString>
          <tessellate>1</tessellate>
          <coordinates>
            4.4399926,51.9567177,0
            4.4595321,51.9644045,0
            4.4031492,51.9823208,0
            4.2370456,51.9376821,0
            4.0937817,51.977009,0
          </coordinates>
        </LineString>
      </Placemark>
      <Placemark>
        <name>RTM SID 06 South</name>
        <styleUrl>#line-F9A825-1200-nodesc</styleUrl>
        <LineString>
          <tessellate>1</tessellate>
          <coordinates>
            4.4399926,51.9567177,0
            4.4595321,51.9644045,0
            4.5972483,51.9986888,0
            4.682049,51.9422157,0
            4.5893514,51.8375396,0
            4.5886653,51.7266703,0
          </coordinates>
        </LineString>
      </Placemark>
      <Placemark>
        <name>RTM STAR 06 East</name>
        <styleUrl>#line-F48FB1-1200-nodesc</styleUrl>
        <LineString>
          <tessellate>1</tessellate>
          <coordinates>
            6.75567,52.3421869,0
            4.3022803,51.8143122,0
            4.2713127,51.8912011,0
            4.4399926,51.9567177,0
          </coordinates>
        </LineString>
      </Placemark>
      <Placemark>
        <name>RTM STAR 06 South</name>
        <styleUrl>#line-F48FB1-1200-nodesc</styleUrl>
        <LineString>
          <tessellate>1</tessellate>
          <coordinates>
            5.424286,50.9073132,0
            4.5911015,51.5980715,0
            4.2744712,51.7675938,0
            4.2713127,51.8912011,0
            4.4399926,51.9567177,0
          </coordinates>
        </LineString>
      </Placemark>
      <Placemark>
        <name>RTM STAR 06 West</name>
        <styleUrl>#line-F48FB1-1200-nodesc</styleUrl>
        <LineString>
          <tessellate>1</tessellate>
          <coordinates>
            2.7381288,52.1848306,0
            3.9624845,51.8623362,0
            4.2713127,51.8912011,0
            4.4399926,51.9567177,0
          </coordinates>
        </LineString>
      </Placemark>
      <Placemark>
        <name>AMS STAR 18R North</name>
        <styleUrl>#line-7CB342-1200-nodesc</styleUrl>
        <LineString>
          <tessellate>1</tessellate>
          <coordinates>
            4.7089047,52.3296148,0
            4.7119249,52.3622643,0
            4.7088695,52.4042832,0
            4.7112728,52.4365277,0
            4.7141311,52.4655725,0
            4.7415969,52.5224287,0
            4.768496,52.5622198,0
            4.8145779,52.6019982,0
            4.9635799,52.6794976,0
            5.0441724,52.7840641,0
            5.2055125,53.4734662,0
          </coordinates>
        </LineString>
      </Placemark>
      <Placemark>
        <name>AMS STAR 18R East</name>
        <styleUrl>#line-7CB342-1200-nodesc</styleUrl>
        <LineString>
          <tessellate>1</tessellate>
          <coordinates>
            4.7089047,52.3296148,0
            4.7119249,52.3622643,0
            4.7088695,52.4042832,0
            4.7112728,52.4365277,0
            4.7141311,52.4655725,0
            4.7415969,52.5224287,0
            4.768496,52.5622198,0
            4.8947189,52.5817148,0
            6.474787,52.6480241,0
          </coordinates>
        </LineString>
      </Placemark>
      <Placemark>
        <name>AMS STAR 18R West</name>
        <styleUrl>#line-7CB342-1200-nodesc</styleUrl>
        <LineString>
          <tessellate>1</tessellate>
          <coordinates>
            4.7089047,52.3296148,0
            4.7119249,52.3622643,0
            4.7088695,52.4042832,0
            4.7112728,52.4365277,0
            4.6707678,52.4582917,0
            4.6554873,52.4622663,0
            4.6402049,52.4639379,0
            4.4563981,52.4674937,0
            3.6392799,52.5911509,0
          </coordinates>
        </LineString>
      </Placemark>
      <Placemark>
        <name>AMS STAR 18R South</name>
        <styleUrl>#line-7CB342-1200-nodesc</styleUrl>
        <LineString>
          <tessellate>1</tessellate>
          <coordinates>
            4.7089047,52.3296148,0
            4.7119249,52.3622643,0
            4.7088695,52.4042832,0
            4.7112728,52.4365277,0
            4.6707678,52.4582917,0
            4.6554873,52.4622663,0
            4.6402049,52.4639379,0
            4.4563981,52.4674937,0
            4.1501391,52.2061866,0
            3.7009209,51.8194183,0
            3.654229,51.3276788,0
          </coordinates>
        </LineString>
      </Placemark>
      <Placemark>
        <name>AMS STAR 18R South-East</name>
        <styleUrl>#line-7CB342-1200-nodesc</styleUrl>
        <LineString>
          <tessellate>1</tessellate>
          <coordinates>
            4.7089047,52.3296148,0
            4.7119249,52.3622643,0
            4.7088695,52.4042832,0
            4.7112728,52.4365277,0
            4.7141311,52.4655725,0
            4.7415969,52.5224287,0
            4.768496,52.5622198,0
            4.8947189,52.5817148,0
            5.2208848,52.4932829,0
            5.5414485,52.2327667,0
            5.6329901,51.8840961,0
            5.8730034,51.5855015,0
          </coordinates>
        </LineString>
      </Placemark>
      <Placemark>
        <name>AMS SID 09 West 2</name>
        <styleUrl>#line-A52714-1200-nodesc</styleUrl>
        <LineString>
          <tessellate>1</tessellate>
          <coordinates>
            4.7745651,52.3176486,0
            4.8330231,52.3185027,0
            4.8958662,52.2380841,0
            4.937196,52.1654843,0
            5.0809627,51.8358595,0
            4.1547309,51.586579,0
            2.5488291,51.8268052,0
          </coordinates>
        </LineString>
      </Placemark>
      <Placemark>
        <name>AMS SID 09 South-West</name>
        <styleUrl>#line-A52714-1200-nodesc</styleUrl>
        <LineString>
          <tessellate>1</tessellate>
          <coordinates>
            4.7745651,52.3176486,0
            4.8330231,52.3185027,0
            4.8958662,52.2380841,0
            4.937196,52.1654843,0
            5.0809627,51.8358595,0
            4.1547309,51.586579,0
            3.6727055,51.3092632,0
          </coordinates>
        </LineString>
      </Placemark>
      <Placemark>
        <name>AMS SID 09 South-East</name>
        <styleUrl>#line-A52714-1200-nodesc</styleUrl>
        <LineString>
          <tessellate>1</tessellate>
          <coordinates>
            4.7745651,52.3176486,0
            4.8330231,52.3185027,0
            4.9646874,52.2781906,0
            5.1874041,52.1731726,0
            5.234577,52.156504,0
            5.2871753,52.1221126,0
            5.3893602,52.0380632,0
            5.5672908,51.8841791,0
            5.8511545,51.5114139,0
            6.2456966,51.2572475,0
          </coordinates>
        </LineString>
      </Placemark>
      <Placemark>
        <name>AMS SID 09 West 1</name>
        <styleUrl>#line-A52714-1200-nodesc</styleUrl>
        <LineString>
          <tessellate>1</tessellate>
          <coordinates>
            4.7745651,52.3176486,0
            4.8330231,52.3185027,0
            4.9646874,52.2781906,0
            5.0566979,52.2907921,0
            5.1500803,52.4279124,0
            5.1799268,52.5570988,0
            4.6354175,52.5857467,0
            3.1668924,52.7509939,0
          </coordinates>
        </LineString>
      </Placemark>
      <Placemark>
        <name>AMS SID 09 North-East</name>
        <styleUrl>#line-A52714-1200-nodesc</styleUrl>
        <LineString>
          <tessellate>1</tessellate>
          <coordinates>
            4.7745651,52.3176486,0
            4.8330231,52.3185027,0
            4.9646874,52.2781906,0
            5.0566979,52.2907921,0
            5.1500803,52.4279124,0
            5.1799268,52.5570988,0
            5.5445453,52.7847066,0
            6.0072894,52.9460373,0
            6.7811896,53.4747693,0
          </coordinates>
        </LineString>
      </Placemark>
      <Placemark>
        <name>AMS SID 09 South</name>
        <styleUrl>#line-A52714-1200-nodesc</styleUrl>
        <LineString>
          <tessellate>1</tessellate>
          <coordinates>
            4.7745651,52.3176486,0
            4.8330231,52.3185027,0
            4.8958662,52.2380841,0
            4.937196,52.1654843,0
            5.0809627,51.8358595,0
            5.2190263,51.6078978,0
            5.1087318,50.9756498,0
          </coordinates>
        </LineString>
      </Placemark>
      <Placemark>
        <name>AMS SID 09 North</name>
        <styleUrl>#line-A52714-1200-nodesc</styleUrl>
        <LineString>
          <tessellate>1</tessellate>
          <coordinates>
            4.7745651,52.3176486,0
            4.8330231,52.3185027,0
            4.9646874,52.2781906,0
            5.0566979,52.2907921,0
            5.1445885,52.4136782,0
            5.1799268,52.5570988,0
            5.0441724,52.7840641,0
          </coordinates>
        </LineString>
      </Placemark>
      <Placemark>
        <name>AMS SID 09 East</name>
        <styleUrl>#line-A52714-1200-nodesc</styleUrl>
        <LineString>
          <tessellate>1</tessellate>
          <coordinates>
            4.7745651,52.3176486,0
            4.8330231,52.3185027,0
            4.9646874,52.2781906,0
            5.0566979,52.2907921,0
            5.1500803,52.4279124,0
            5.9606428,52.4097068,0
            6.8053622,52.46501,0
          </coordinates>
        </LineString>
      </Placemark>
      <Placemark>
        <name>AMS SID 09 North-West</name>
        <styleUrl>#line-A52714-1200-nodesc</styleUrl>
        <LineString>
          <tessellate>1</tessellate>
          <coordinates>
            4.7745651,52.3176486,0
            4.8330231,52.3185027,0
            4.9646874,52.2781906,0
            5.0566979,52.2907921,0
            5.1500803,52.4279124,0
            5.1799268,52.5570988,0
            4.6354175,52.5857467,0
            4.0294238,52.9364258,0
            3.4913897,53.2284724,0
          </coordinates>
        </LineString>
      </Placemark>
    </Folder>
    <Folder>
      <name>Grenzen</name>
      <Placemark>
        <name>FIR NL</name>
        <styleUrl>#poly-FBC02D-1200-0-nodesc</styleUrl>
        <Polygon>
          <outerBoundaryIs>
            <LinearRing>
              <tessellate>1</tessellate>
              <coordinates>
                2.2298166,51.4383177,0
                3.3469839,51.3834286,0
                6.0174056,50.7524498,0
                7.2151065,53.2181877,0
                6.6200783,53.5791122,0
                6.4594008,54.9945536,0
                4.8994061,55.0449392,0
                2.2298166,51.4383177,0
              </coordinates>
            </LinearRing>
          </outerBoundaryIs>
        </Polygon>
      </Placemark>
      <Placemark>
        <name>Cirkel</name>
        <styleUrl>#poly-0288D1-1200-0-nodesc</styleUrl>
        <Polygon>
          <outerBoundaryIs>
            <LinearRing>
              <tessellate>1</tessellate>
              <coordinates>
                1.3618328,48.7327613,0
                5.6291903,49.8991383,0
                7.7509088,52.0185973,0
                6.4964293,55.0733964,0
                2.5410705,56.0898715,0
                -0.3360801,56.0085957,0
                -2.9470321,55.2618472,0
                -4.1795903,52.0867176,0
                -2.8903848,49.9381339,0
                1.3618328,48.7327613,0
              </coordinates>
            </LinearRing>
          </outerBoundaryIs>
        </Polygon>
      </Placemark>
    </Folder>
    <Folder>
      <name>F35</name>
      <Placemark>
        <name>Defensie F35 gebied</name>
        <styleUrl>#poly-FF5252-1200-158-nodesc</styleUrl>
        <Polygon>
          <outerBoundaryIs>
            <LinearRing>
              <tessellate>1</tessellate>
              <coordinates>
                4.6155752,52.7259076,0
                5.3351797,52.7857492,0
                6.7304433,53.5007194,0
                6.6200783,53.5791122,0
                6.5128622,54.3913472,0
                4.4474325,54.4808039,0
                3.6783896,53.4663808,0
                3.9969931,52.9730345,0
                4.6155752,52.7259076,0
              </coordinates>
            </LinearRing>
          </outerBoundaryIs>
        </Polygon>
      </Placemark>
    </Folder>
    <Folder>
      <name>Waypoints</name>
      <Placemark>
        <name>ILS RTM</name>
        <styleUrl>#icon-1899-0288D1-labelson-nodesc</styleUrl>
        <Point>
          <coordinates>
            4.2713127,51.8912011,0
          </coordinates>
        </Point>
      </Placemark>
      <Placemark>
        <name>Entry RTM Z</name>
        <styleUrl>#icon-1899-0288D1-labelson-nodesc</styleUrl>
        <Point>
          <coordinates>
            5.424286,50.9073132,0
          </coordinates>
        </Point>
      </Placemark>
      <Placemark>
        <name>Entry RTM W</name>
        <styleUrl>#icon-1899-0288D1-labelson-nodesc</styleUrl>
        <Point>
          <coordinates>
            2.7381288,52.1848306,0
          </coordinates>
        </Point>
      </Placemark>
      <Placemark>
        <name>Entry RTM O</name>
        <styleUrl>#icon-1899-0288D1-labelson-nodesc</styleUrl>
        <Point>
          <coordinates>
            6.75567,52.3421869,0
          </coordinates>
        </Point>
      </Placemark>
      <Placemark>
        <name>ARTW1</name>
        <styleUrl>#icon-1899-0288D1-labelson-nodesc</styleUrl>
        <Point>
          <coordinates>
            3.9597378,51.8623387,0
          </coordinates>
        </Point>
      </Placemark>
      <Placemark>
        <name>ARTZ1</name>
        <styleUrl>#icon-1899-0288D1-labelson-nodesc</styleUrl>
        <Point>
          <coordinates>
            4.5911015,51.5980715,0
          </coordinates>
        </Point>
      </Placemark>
      <Placemark>
        <name>ARTZ2</name>
        <styleUrl>#icon-1899-0288D1-labelson-nodesc</styleUrl>
        <Point>
          <coordinates>
            4.2744712,51.7675938,0
          </coordinates>
        </Point>
      </Placemark>
      <Placemark>
        <name>ARTO1</name>
        <styleUrl>#icon-1899-0288D1-labelson-nodesc</styleUrl>
        <Point>
          <coordinates>
            4.3022803,51.8143122,0
          </coordinates>
        </Point>
      </Placemark>
      <Placemark>
        <name>Entry AMS O</name>
        <styleUrl>#icon-1899-7CB342-labelson-nodesc</styleUrl>
        <Point>
          <coordinates>
            6.474787,52.6480241,0
          </coordinates>
        </Point>
      </Placemark>
      <Placemark>
        <name>18R5 5</name>
        <styleUrl>#icon-1899-7CB342-labelson-nodesc</styleUrl>
        <Point>
          <coordinates>
            4.4563981,52.4674937,0
          </coordinates>
        </Point>
      </Placemark>
      <Placemark>
        <name>Start RW18R</name>
        <styleUrl>#icon-1899-7CB342-labelson-nodesc</styleUrl>
        <Point>
          <coordinates>
            4.7119249,52.3622643,0
          </coordinates>
        </Point>
      </Placemark>
      <Placemark>
        <name>END RW18R</name>
        <styleUrl>#icon-1899-7CB342-labelson-nodesc</styleUrl>
        <Point>
          <coordinates>
            4.7089047,52.3296148,0
          </coordinates>
        </Point>
      </Placemark>
      <Placemark>
        <name>18R 16</name>
        <styleUrl>#icon-1899-7CB342-labelson-nodesc</styleUrl>
        <Point>
          <coordinates>
            5.5414485,52.2327667,0
          </coordinates>
        </Point>
      </Placemark>
      <Placemark>
        <name>18R 1</name>
        <styleUrl>#icon-1899-7CB342-labelson-nodesc</styleUrl>
        <Point>
          <coordinates>
            4.7088695,52.4042832,0
          </coordinates>
        </Point>
      </Placemark>
      <Placemark>
        <name>18R 3</name>
        <styleUrl>#icon-1899-7CB342-labelson-nodesc</styleUrl>
        <Point>
          <coordinates>
            4.6402049,52.4639379,0
          </coordinates>
        </Point>
      </Placemark>
      <Placemark>
        <name>Entry AMS W</name>
        <styleUrl>#icon-1899-7CB342-labelson-nodesc</styleUrl>
        <Point>
          <coordinates>
            3.6392799,52.5911509,0
          </coordinates>
        </Point>
      </Placemark>
      <Placemark>
        <name>18R 6</name>
        <styleUrl>#icon-1899-7CB342-labelson-nodesc</styleUrl>
        <Point>
          <coordinates>
            4.7415969,52.5224287,0
          </coordinates>
        </Point>
      </Placemark>
      <Placemark>
        <name>RW18 7</name>
        <styleUrl>#icon-1899-7CB342-labelson-nodesc</styleUrl>
        <Point>
          <coordinates>
            4.8947189,52.5817148,0
          </coordinates>
        </Point>
      </Placemark>
      <Placemark>
        <name>18R 4</name>
        <styleUrl>#icon-1899-7CB342-labelson-nodesc</styleUrl>
        <Point>
          <coordinates>
            4.7141311,52.4655725,0
          </coordinates>
        </Point>
      </Placemark>
      <Placemark>
        <name>18R 15</name>
        <styleUrl>#icon-1899-7CB342-labelson-nodesc</styleUrl>
        <Point>
          <coordinates>
            5.2212116,52.4932539,0
          </coordinates>
        </Point>
      </Placemark>
      <Placemark>
        <name>18R 14</name>
        <styleUrl>#icon-1899-7CB342-labelson-nodesc</styleUrl>
        <Point>
          <coordinates>
            5.2208848,52.4932829,0
          </coordinates>
        </Point>
      </Placemark>
      <Placemark>
        <name>Entry AMS SO</name>
        <styleUrl>#icon-1899-7CB342-labelson-nodesc</styleUrl>
        <Point>
          <coordinates>
            5.8730034,51.5855015,0
          </coordinates>
        </Point>
      </Placemark>
      <Placemark>
        <name>18R 13</name>
        <styleUrl>#icon-1899-7CB342-labelson-nodesc</styleUrl>
        <Point>
          <coordinates>
            5.6329901,51.8840961,0
          </coordinates>
        </Point>
      </Placemark>
      <Placemark>
        <name>Entry AMS N</name>
        <styleUrl>#icon-1899-7CB342-labelson-nodesc</styleUrl>
        <Point>
          <coordinates>
            5.2055125,53.4734662,0
          </coordinates>
        </Point>
      </Placemark>
      <Placemark>
        <name>18R 12</name>
        <styleUrl>#icon-1899-7CB342-labelson-nodesc</styleUrl>
        <Point>
          <coordinates>
            5.0441724,52.7840641,0
          </coordinates>
        </Point>
      </Placemark>
      <Placemark>
        <name>18R 11</name>
        <styleUrl>#icon-1899-7CB342-labelson-nodesc</styleUrl>
        <Point>
          <coordinates>
            4.9635799,52.6794976,0
          </coordinates>
        </Point>
      </Placemark>
      <Placemark>
        <name>18R 10</name>
        <styleUrl>#icon-1899-7CB342-labelson-nodesc</styleUrl>
        <Point>
          <coordinates>
            4.8145779,52.6019982,0
          </coordinates>
        </Point>
      </Placemark>
      <Placemark>
        <name>Entry AMS S</name>
        <styleUrl>#icon-1899-7CB342-labelson-nodesc</styleUrl>
        <Point>
          <coordinates>
            3.654229,51.3276788,0
          </coordinates>
        </Point>
      </Placemark>
      <Placemark>
        <name>18R 9</name>
        <styleUrl>#icon-1899-7CB342-labelson-nodesc</styleUrl>
        <Point>
          <coordinates>
            3.7009209,51.8194183,0
          </coordinates>
        </Point>
      </Placemark>
      <Placemark>
        <name>18R 8</name>
        <styleUrl>#icon-1899-7CB342-labelson-nodesc</styleUrl>
        <Point>
          <coordinates>
            4.1501391,52.2061866,0
          </coordinates>
        </Point>
      </Placemark>
      <Placemark>
        <name>18R 2</name>
        <styleUrl>#icon-1899-7CB342-labelson-nodesc</styleUrl>
        <Point>
          <coordinates>
            4.7112728,52.4365277,0
          </coordinates>
        </Point>
      </Placemark>
    </Folder>
    <Folder>
      <name>SID RW4</name>
      <Placemark>
        <name>AMSRWY04</name>
        <description>Oostbaan</description>
        <styleUrl>#icon-1899-0288D1-labelson</styleUrl>
        <Point>
          <coordinates>
            4.7958533,52.3087794,0
          </coordinates>
        </Point>
      </Placemark>
      <Placemark>
        <name>Lijn 1STAR RWY04_3</name>
        <styleUrl>#line-000000-1200-nodesc</styleUrl>
        <LineString>
          <tessellate>1</tessellate>
          <coordinates>
            2.7381288,52.1848306,0
            4.2587313,52.1542743,0
            4.3872215,52.1391607,0
            4.5100436,52.1083308,0
            4.6556124,52.1770177,0
            4.7124402,52.2418665,0
          </coordinates>
        </LineString>
      </Placemark>
      <Placemark>
        <name>STAR RWY04_1</name>
        <styleUrl>#icon-1899-0288D1-labelson-nodesc</styleUrl>
        <Point>
          <coordinates>
            4.742146,52.2772562,0
          </coordinates>
        </Point>
      </Placemark>
      <Placemark>
        <name>4.742146 52.2772562</name>
        <description>4.7124402 52.2418665</description>
      </Placemark>
      <Placemark>
        <name>Punt 17</name>
        <styleUrl>#icon-1899-0288D1-labelson-nodesc</styleUrl>
        <Point>
          <coordinates>
            4.7124402,52.2418665,0
          </coordinates>
        </Point>
      </Placemark>
      <Placemark>
        <name>Punt 18</name>
        <styleUrl>#icon-1899-0288D1-labelson-nodesc</styleUrl>
        <Point>
          <coordinates>
            4.8099439,52.1951716,0
          </coordinates>
        </Point>
      </Placemark>
      <Placemark>
        <name>5.424286 50.9073132)</name>
        <description>STAR RWY04_2</description>
      </Placemark>
      <Placemark>
        <name>STAR RWY04 AMS</name>
        <styleUrl>#line-0288D1-1200-nodesc</styleUrl>
        <LineString>
          <tessellate>1</tessellate>
          <coordinates>
            4.8099439,52.1951716,0
            4.7124402,52.2418665,0
            4.742146,52.2772562,0
            4.7958533,52.3087794,0
          </coordinates>
        </LineString>
      </Placemark>
    </Folder>
    <Folder>
      <name>SID RTM</name>
      <Placemark>
        <name>RTM</name>
        <styleUrl>#icon-1899-0288D1-labelson-nodesc</styleUrl>
        <Point>
          <coordinates>
            4.4340703,51.9552036,0
          </coordinates>
        </Point>
      </Placemark>
      <Placemark>
        <name>RTW1</name>
        <description>Rotterdam West 1</description>
        <styleUrl>#icon-1899-0288D1-labelson</styleUrl>
        <Point>
          <coordinates>
            4.3614355,51.9703725,0
          </coordinates>
        </Point>
      </Placemark>
      <Placemark>
        <name>RTW2</name>
        <styleUrl>#icon-1899-0288D1-labelson-nodesc</styleUrl>
        <Point>
          <coordinates>
            4.2370456,51.9376821,0
          </coordinates>
        </Point>
      </Placemark>
      <Placemark>
        <name>RTW3</name>
        <styleUrl>#icon-1899-0288D1-labelson-nodesc</styleUrl>
        <Point>
          <coordinates>
            4.0937817,51.977009,0
          </coordinates>
        </Point>
      </Placemark>
      <Placemark>
        <name>4.4599848 51.9645426</name>
        <description>4.4418723 51.9793566</description>
      </Placemark>
      <Placemark>
        <name>RTZ1</name>
        <styleUrl>#icon-1899-0288D1-labelson-nodesc</styleUrl>
        <Point>
          <coordinates>
            4.5972483,51.9986888,0
          </coordinates>
        </Point>
      </Placemark>
      <Placemark>
        <name>RTZ2</name>
        <styleUrl>#icon-1899-0288D1-labelson-nodesc</styleUrl>
        <Point>
          <coordinates>
            4.682049,51.9422157,0
          </coordinates>
        </Point>
      </Placemark>
      <Placemark>
        <name>RTZ3</name>
        <styleUrl>#icon-1899-0288D1-labelson-nodesc</styleUrl>
        <Point>
          <coordinates>
            4.5893514,51.8375396,0
          </coordinates>
        </Point>
      </Placemark>
      <Placemark>
        <name>RTZ4</name>
        <styleUrl>#icon-1899-0288D1-labelson-nodesc</styleUrl>
        <Point>
          <coordinates>
            4.5886653,51.7266703,0
          </coordinates>
        </Point>
      </Placemark>
      <Placemark>
        <name> 4.5972483 51.9986888</name>
        <description>4.682049 51.9422157</description>
      </Placemark>
      <Placemark>
        <name>RTO1</name>
        <styleUrl>#icon-1899-0288D1-labelson-nodesc</styleUrl>
        <Point>
          <coordinates>
            5.025371,51.9341379,0
          </coordinates>
        </Point>
      </Placemark>
      <Placemark>
        <name> 4.5972483 51.9986888</name>
        <description>4.682049 51.9422157</description>
      </Placemark>
    </Folder>
    <Folder>
      <name>STAR 18C</name>
      <Placemark>
        <name>AMS SID 36L North</name>
        <styleUrl>#line-097138-1200-nodesc</styleUrl>
        <LineString>
          <tessellate>1</tessellate>
          <coordinates>
            4.7089047,52.3296148,0
            4.7119249,52.3622643,0
            4.7088695,52.4042832,0
            4.7112728,52.4365277,0
            4.7141311,52.4655725,0
            4.7415969,52.5224287,0
            4.768496,52.5622198,0
            4.8145779,52.6019982,0
            4.9635799,52.6794976,0
          </coordinates>
        </LineString>
      </Placemark>
      <Placemark>
        <name>AMS SID 36L East</name>
        <styleUrl>#line-097138-1200-nodesc</styleUrl>
        <LineString>
          <tessellate>1</tessellate>
          <coordinates>
            4.7089047,52.3296148,0
            4.7119249,52.3622643,0
            4.7088695,52.4042832,0
            4.7112728,52.4365277,0
            4.7141311,52.4655725,0
            4.7415969,52.5224287,0
            4.768496,52.5622198,0
            4.8947189,52.5817148,0
          </coordinates>
        </LineString>
      </Placemark>
      <Placemark>
        <name>AMS SID 36L South-East</name>
        <styleUrl>#line-097138-1200-nodesc</styleUrl>
        <LineString>
          <tessellate>1</tessellate>
          <coordinates>
            4.7089047,52.3296148,0
            4.7119249,52.3622643,0
            4.7088695,52.4042832,0
            4.7112728,52.4365277,0
            4.7141311,52.4655725,0
            4.7415969,52.5224287,0
            4.768496,52.5622198,0
            4.8947189,52.5817148,0
            5.2212116,52.4932539,0
            5.5414485,52.2327667,0
          </coordinates>
        </LineString>
      </Placemark>
      <Placemark>
        <name>AMS SID 36L South</name>
        <styleUrl>#line-097138-1200-nodesc</styleUrl>
        <LineString>
          <tessellate>1</tessellate>
          <coordinates>
            4.7089047,52.3296148,0
            4.7119249,52.3622643,0
            4.7088695,52.4042832,0
            4.7112728,52.4365277,0
            4.6707678,52.4582917,0
            4.6554873,52.4622663,0
            4.6402049,52.4639379,0
            4.4563981,52.4674937,0
            4.2239231,52.2694907,0
          </coordinates>
        </LineString>
      </Placemark>
      <Placemark>
        <name>AMS STAR 18C West</name>
        <styleUrl>#line-9C27B0-1200-nodesc</styleUrl>
        <LineString>
          <tessellate>1</tessellate>
          <coordinates>
            4.7375004,52.3043382,0
            4.7403664,52.3335534,0
            4.7426833,52.3780336,0
            4.7456975,52.4211924,0
            4.7112728,52.4365277,0
            4.6707678,52.4582917,0
            4.6402049,52.4639379,0
            4.4563981,52.4674937,0
            3.0954667,52.6744879,0
          </coordinates>
        </LineString>
      </Placemark>
      <Placemark>
        <name>AMS SID 18C South</name>
        <styleUrl>#line-1A237E-1200-nodesc</styleUrl>
        <LineString>
          <tessellate>1</tessellate>
          <coordinates>
            4.7403664,52.3335534,0
            4.7378698,52.3078306,0
            4.7400862,52.2461891,0
            4.7620589,52.1733982,0
            4.8327833,52.0625105,0
            4.9852187,51.9327476,0
          </coordinates>
        </LineString>
      </Placemark>
      <Placemark>
        <name>AMS STAR 18C South</name>
        <styleUrl>#line-9C27B0-1200-nodesc</styleUrl>
        <LineString>
          <tessellate>1</tessellate>
          <coordinates>
            4.7375018,52.3021821,0
            4.7403664,52.3335534,0
            4.7426833,52.3780336,0
            4.7456975,52.4211924,0
            4.7112728,52.4365277,0
            4.6707678,52.4582917,0
            4.6402049,52.4639379,0
            4.4563981,52.4674937,0
            4.1501391,52.2061866,0
            3.7009209,51.8194183,0
            3.6740059,51.3566655,0
          </coordinates>
        </LineString>
      </Placemark>
      <Placemark>
        <name>AMS STAR 18C West</name>
        <styleUrl>#line-1A237E-1200-nodesc</styleUrl>
        <LineString>
          <tessellate>1</tessellate>
          <coordinates>
            4.7440219,52.3274272,0
            4.7369429,52.2959291,0
            4.7254825,52.2829227,0
            4.6490523,52.2324727,0
            4.5151564,52.1436495,0
            4.4667847,52.1161576,0
            4.4221527,52.1106759,0
            4.3857605,52.1140493,0
            4.3404419,52.1195306,0
            4.2031128,52.1477696,0
            3.8752431,52.1613041,0
          </coordinates>
        </LineString>
      </Placemark>
      <Placemark>
        <name>AMS SID 18C North</name>
        <styleUrl>#line-1A237E-1200-nodesc</styleUrl>
        <LineString>
          <tessellate>1</tessellate>
          <coordinates>
            4.7402395,52.3309705,0
            4.7378698,52.3078306,0
            4.7387597,52.2538213,0
            4.7511193,52.2050351,0
            4.7813317,52.183148,0
            4.8115441,52.1806219,0
            4.8527428,52.1764113,0
            4.8843285,52.1738848,0
            4.9310204,52.1806219,0
            4.9818322,52.1924092,0
            5.0179044,52.204214,0
            5.0642297,52.243732,0
            5.0893156,52.2882963,0
            5.0971886,52.3092715,0
            5.0971886,52.3319357,0
            5.0971886,52.355427,0
            5.098242,52.3785072,0
            5.0889489,52.4124254,0
          </coordinates>
        </LineString>
      </Placemark>
      <Placemark>
        <name>AMS STAR 18C East</name>
        <styleUrl>#line-9C27B0-1200-nodesc</styleUrl>
        <LineString>
          <tessellate>1</tessellate>
          <coordinates>
            4.7375018,52.3021821,0
            4.7402395,52.3309705,0
            4.7426833,52.3780336,0
            4.7456975,52.4211924,0
            4.7397482,52.4642799,0
            4.7415969,52.5224287,0
            4.7776591,52.5650685,0
            4.8947189,52.5817148,0
            5.0825297,52.5892701,0
            6.474787,52.6480241,0
          </coordinates>
        </LineString>
      </Placemark>
      <Placemark>
        <name>AMS STAR 18C North</name>
        <styleUrl>#line-9C27B0-1200-nodesc</styleUrl>
        <LineString>
          <tessellate>1</tessellate>
          <coordinates>
            4.7378698,52.3078306,0
            4.7403664,52.3335534,0
            4.741238,52.3811451,0
            4.7456975,52.4211924,0
            4.7397482,52.4642799,0
            4.7398647,52.5250914,0
            4.8145779,52.6019982,0
            4.9635799,52.6794976,0
            5.0441724,52.7840641,0
            5.1982634,53.4841324,0
            5.2055125,53.4734662,0
          </coordinates>
        </LineString>
      </Placemark>
      <Placemark>
        <name>STAR 18 C</name>
        <styleUrl>#icon-1899-0288D1-labelson-nodesc</styleUrl>
        <Point>
          <coordinates>
            4.7375018,52.3021821,0
          </coordinates>
        </Point>
      </Placemark>
      <Placemark>
        <name>36L Start</name>
        <styleUrl>#icon-1899-097138-labelson-nodesc</styleUrl>
        <Point>
          <coordinates>
            4.7089025,52.3296163,0
          </coordinates>
        </Point>
      </Placemark>
      <Placemark>
        <name>Punt 2</name>
        <styleUrl>#icon-1899-0288D1-labelson-nodesc</styleUrl>
        <Point>
          <coordinates>
            4.7402395,52.3309705,0
          </coordinates>
        </Point>
      </Placemark>
      <Placemark>
        <name>36L end</name>
        <styleUrl>#icon-1899-097138-labelson-nodesc</styleUrl>
        <Point>
          <coordinates>
            4.7124444,52.3622263,0
          </coordinates>
        </Point>
      </Placemark>
      <Placemark>
        <name>36L 1</name>
        <styleUrl>#icon-1899-097138-labelson-nodesc</styleUrl>
        <Point>
          <coordinates>
            4.7088695,52.4042832,0
          </coordinates>
        </Point>
      </Placemark>
      <Placemark>
        <name>36L 2</name>
        <styleUrl>#icon-1899-097138-labelson-nodesc</styleUrl>
        <Point>
          <coordinates>
            4.7112728,52.4365277,0
          </coordinates>
        </Point>
      </Placemark>
      <Placemark>
        <name>36L 3</name>
        <styleUrl>#icon-1899-097138-labelson-nodesc</styleUrl>
        <Point>
          <coordinates>
            4.6402049,52.4639379,0
          </coordinates>
        </Point>
      </Placemark>
      <Placemark>
        <name>Punt 3</name>
        <styleUrl>#icon-1899-0288D1-labelson-nodesc</styleUrl>
        <Point>
          <coordinates>
            4.7426833,52.3780336,0
          </coordinates>
        </Point>
      </Placemark>
      <Placemark>
        <name>Punt 4</name>
        <styleUrl>#icon-1899-0288D1-labelson-nodesc</styleUrl>
        <Point>
          <coordinates>
            4.7456975,52.4211924,0
          </coordinates>
        </Point>
      </Placemark>
      <Placemark>
        <name>Punt 5</name>
        <styleUrl>#icon-1899-0288D1-labelson-nodesc</styleUrl>
        <Point>
          <coordinates>
            4.7112728,52.4365277,0
          </coordinates>
        </Point>
      </Placemark>
      <Placemark>
        <name>Punt 6</name>
        <styleUrl>#icon-1899-0288D1-labelson-nodesc</styleUrl>
        <Point>
          <coordinates>
            4.6402049,52.4639379,0
          </coordinates>
        </Point>
      </Placemark>
      <Placemark>
        <name>Punt 7</name>
        <styleUrl>#icon-1899-0288D1-labelson-nodesc</styleUrl>
        <Point>
          <coordinates>
            4.4563981,52.4674937,0
          </coordinates>
        </Point>
      </Placemark>
      <Placemark>
        <name>Punt 8</name>
        <styleUrl>#icon-1899-0288D1-labelson-nodesc</styleUrl>
        <Point>
          <coordinates>
            4.1501391,52.2061866,0
          </coordinates>
        </Point>
      </Placemark>
      <Placemark>
        <name>36L SID END W</name>
        <styleUrl>#icon-1899-097138-labelson-nodesc</styleUrl>
        <Point>
          <coordinates>
            4.4563981,52.4674937,0
          </coordinates>
        </Point>
      </Placemark>
      <Placemark>
        <name>Punt 9</name>
        <styleUrl>#icon-1899-0288D1-labelson-nodesc</styleUrl>
        <Point>
          <coordinates>
            3.0954667,52.6744879,0
          </coordinates>
        </Point>
      </Placemark>
      <Placemark>
        <name>Punt 10</name>
        <styleUrl>#icon-1899-0288D1-labelson-nodesc</styleUrl>
        <Point>
          <coordinates>
            3.7009209,51.8194183,0
          </coordinates>
        </Point>
      </Placemark>
      <Placemark>
        <name>Punt 11</name>
        <styleUrl>#icon-1899-0288D1-labelson-nodesc</styleUrl>
        <Point>
          <coordinates>
            3.6760657,51.3325955,0
          </coordinates>
        </Point>
      </Placemark>
      <Placemark>
        <name>Punt 12</name>
        <styleUrl>#icon-1899-0288D1-labelson-nodesc</styleUrl>
        <Point>
          <coordinates>
            4.7397482,52.4642799,0
          </coordinates>
        </Point>
      </Placemark>
      <Placemark>
        <name>Punt 13</name>
        <styleUrl>#icon-1899-0288D1-labelson-nodesc</styleUrl>
        <Point>
          <coordinates>
            4.7415969,52.5224287,0
          </coordinates>
        </Point>
      </Placemark>
      <Placemark>
        <name>Punt 14</name>
        <styleUrl>#icon-1899-0288D1-labelson-nodesc</styleUrl>
        <Point>
          <coordinates>
            4.8145779,52.6019982,0
          </coordinates>
        </Point>
      </Placemark>
      <Placemark>
        <name>Punt 15</name>
        <styleUrl>#icon-1899-0288D1-labelson-nodesc</styleUrl>
        <Point>
          <coordinates>
            4.9635799,52.6794976,0
          </coordinates>
        </Point>
      </Placemark>
      <Placemark>
        <name>Punt 16</name>
        <styleUrl>#icon-1899-0288D1-labelson-nodesc</styleUrl>
        <Point>
          <coordinates>
            5.0487986,52.7835587,0
          </coordinates>
        </Point>
      </Placemark>
      <Placemark>
        <name>Punt 17</name>
        <styleUrl>#icon-1899-0288D1-labelson-nodesc</styleUrl>
        <Point>
          <coordinates>
            5.224065,53.4736201,0
          </coordinates>
        </Point>
      </Placemark>
      <Placemark>
        <name>Punt 18</name>
        <styleUrl>#icon-1899-0288D1-labelson-nodesc</styleUrl>
        <Point>
          <coordinates>
            4.8947189,52.5817148,0
          </coordinates>
        </Point>
      </Placemark>
      <Placemark>
        <name>Punt 19</name>
        <styleUrl>#icon-1899-0288D1-labelson-nodesc</styleUrl>
        <Point>
          <coordinates>
            6.474787,52.6480241,0
          </coordinates>
        </Point>
      </Placemark>
      <Placemark>
        <name>36L 5</name>
        <styleUrl>#icon-1899-097138-labelson-nodesc</styleUrl>
        <Point>
          <coordinates>
            4.7141311,52.4655725,0
          </coordinates>
        </Point>
      </Placemark>
      <Placemark>
        <name>36L 6</name>
        <styleUrl>#icon-1899-097138-labelson-nodesc</styleUrl>
        <Point>
          <coordinates>
            4.7415969,52.5224287,0
          </coordinates>
        </Point>
      </Placemark>
      <Placemark>
        <name>36L SID END O</name>
        <styleUrl>#icon-1899-097138-labelson-nodesc</styleUrl>
        <Point>
          <coordinates>
            4.8947189,52.5817148,0
          </coordinates>
        </Point>
      </Placemark>
      <Placemark>
        <name>36L 8</name>
        <styleUrl>#icon-1899-097138-labelson-nodesc</styleUrl>
        <Point>
          <coordinates>
            4.8145779,52.6019982,0
          </coordinates>
        </Point>
      </Placemark>
      <Placemark>
        <name>36L SID END N</name>
        <styleUrl>#icon-1899-097138-labelson-nodesc</styleUrl>
        <Point>
          <coordinates>
            4.9635799,52.6794976,0
          </coordinates>
        </Point>
      </Placemark>
      <Placemark>
        <name>36L SID END S</name>
        <styleUrl>#icon-1899-097138-labelson-nodesc</styleUrl>
        <Point>
          <coordinates>
            4.2239231,52.2694907,0
          </coordinates>
        </Point>
      </Placemark>
      <Placemark>
        <name>36L 9</name>
        <styleUrl>#icon-1899-097138-labelson-nodesc</styleUrl>
        <Point>
          <coordinates>
            5.2212116,52.4932539,0
          </coordinates>
        </Point>
      </Placemark>
      <Placemark>
        <name>36L 10</name>
        <styleUrl>#icon-1899-097138-labelson-nodesc</styleUrl>
        <Point>
          <coordinates>
            5.5414485,52.2327667,0
          </coordinates>
        </Point>
      </Placemark>
      <Placemark>
        <name>AMS SID 36L West</name>
        <styleUrl>#line-097138-1200-nodesc</styleUrl>
        <LineString>
          <tessellate>1</tessellate>
          <coordinates>
            4.7089047,52.3296148,0
            4.7119249,52.3622643,0
            4.7088695,52.4042832,0
            4.7112728,52.4365277,0
            4.6707678,52.4582917,0
            4.6554873,52.4622663,0
            4.6402049,52.4639379,0
            4.4563981,52.4674937,0
          </coordinates>
        </LineString>
      </Placemark>
    </Folder>
    <Folder>
      <name>STAR 36C</name>
      <Placemark>
        <name>Punt 1</name>
        <styleUrl>#icon-1899-FF5252-nodesc</styleUrl>
        <Point>
          <coordinates>
            4.7410628,52.3244759,0
          </coordinates>
        </Point>
      </Placemark>
      <Placemark>
        <name>Punt 2</name>
        <styleUrl>#icon-1899-FF5252-nodesc</styleUrl>
        <Point>
          <coordinates>
            4.7369429,52.2959291,0
          </coordinates>
        </Point>
      </Placemark>
      <Placemark>
        <name>Punt 3</name>
        <styleUrl>#icon-1899-FF5252-nodesc</styleUrl>
        <Point>
          <coordinates>
            4.6490523,52.2324727,0
          </coordinates>
        </Point>
      </Placemark>
      <Placemark>
        <name>Punt 4</name>
        <styleUrl>#icon-1899-FF5252-nodesc</styleUrl>
        <Point>
          <coordinates>
            4.5151564,52.1436495,0
          </coordinates>
        </Point>
      </Placemark>
      <Placemark>
        <name>Punt 5</name>
        <styleUrl>#icon-1899-FF5252-nodesc</styleUrl>
        <Point>
          <coordinates>
            4.3146559,52.1444923,0
          </coordinates>
        </Point>
      </Placemark>
      <Placemark>
        <name>Punt 6</name>
        <styleUrl>#icon-1899-FF5252-nodesc</styleUrl>
        <Point>
          <coordinates>
            3.0954667,52.6744879,0
          </coordinates>
        </Point>
      </Placemark>
      <Placemark>
        <name>Punt 7</name>
        <styleUrl>#icon-1899-FF5252-nodesc</styleUrl>
        <Point>
          <coordinates>
            4.7400862,52.2461891,0
          </coordinates>
        </Point>
      </Placemark>
      <Placemark>
        <name>Punt 8</name>
        <styleUrl>#icon-1899-FF5252-nodesc</styleUrl>
        <Point>
          <coordinates>
            4.7620589,52.1733982,0
          </coordinates>
        </Point>
      </Placemark>
      <Placemark>
        <name>Punt 9</name>
        <styleUrl>#icon-1899-FF5252-nodesc</styleUrl>
        <Point>
          <coordinates>
            4.8327833,52.0625105,0
          </coordinates>
        </Point>
      </Placemark>
      <Placemark>
        <name>Punt 10</name>
        <styleUrl>#icon-1899-FF5252-nodesc</styleUrl>
        <Point>
          <coordinates>
            4.9852187,51.9327476,0
          </coordinates>
        </Point>
      </Placemark>
      <Placemark>
        <name>Punt 13</name>
        <styleUrl>#icon-1899-FF5252-nodesc</styleUrl>
        <Point>
          <coordinates>
            4.8709623,52.1717998,0
          </coordinates>
        </Point>
      </Placemark>
      <Placemark>
        <name>Punt 14</name>
        <styleUrl>#icon-1899-FF5252-nodesc</styleUrl>
        <Point>
          <coordinates>
            5.0179044,52.204214,0
          </coordinates>
        </Point>
      </Placemark>
      <Placemark>
        <name>Punt 15</name>
        <styleUrl>#icon-1899-FF5252-nodesc</styleUrl>
        <Point>
          <coordinates>
            5.0893156,52.2882963,0
          </coordinates>
        </Point>
      </Placemark>
      <Placemark>
        <name>Punt 16</name>
        <styleUrl>#icon-1899-FF5252-nodesc</styleUrl>
        <Point>
          <coordinates>
            5.098242,52.3785072,0
          </coordinates>
        </Point>
      </Placemark>
      <Placemark>
        <name>Punt 17</name>
        <styleUrl>#icon-1899-FF5252-nodesc</styleUrl>
        <Point>
          <coordinates>
            5.1012772,52.4881899,0
          </coordinates>
        </Point>
      </Placemark>
    </Folder>
    <Folder>
      <name>SID AMS RWY09</name>
      <Placemark>
        <name>AMSRWY09 Start</name>
        <styleUrl>#icon-1899-C2185B-nodesc</styleUrl>
        <Point>
          <coordinates>
            4.7745651,52.3176486,0
          </coordinates>
        </Point>
      </Placemark>
      <Placemark>
        <name>AMSRW09 Split</name>
        <styleUrl>#icon-1899-C2185B-nodesc</styleUrl>
        <Point>
          <coordinates>
            4.8330231,52.3185027,0
          </coordinates>
        </Point>
      </Placemark>
      <Placemark>
        <name>AMSRW09NE</name>
        <styleUrl>#icon-1899-0288D1-nodesc</styleUrl>
        <Point>
          <coordinates>
            4.9646874,52.2781906,0
          </coordinates>
        </Point>
      </Placemark>
      <Placemark>
        <name>AMSRWY09 N</name>
        <styleUrl>#icon-1899-0288D1-nodesc</styleUrl>
        <Point>
          <coordinates>
            5.0566979,52.2907921,0
          </coordinates>
        </Point>
      </Placemark>
      <Placemark>
        <name>AMSRWY09 N2</name>
        <styleUrl>#icon-1899-0288D1-nodesc</styleUrl>
        <Point>
          <coordinates>
            5.1500803,52.4279124,0
          </coordinates>
        </Point>
      </Placemark>
      <Placemark>
        <name>AMSRWY09 N F35</name>
        <styleUrl>#icon-1899-0288D1-nodesc</styleUrl>
        <Point>
          <coordinates>
            5.0441724,52.7840641,0
          </coordinates>
        </Point>
      </Placemark>
      <Placemark>
        <name>AMSRWY09 N3</name>
        <styleUrl>#icon-1899-0288D1-nodesc</styleUrl>
        <Point>
          <coordinates>
            5.5445453,52.7847066,0
          </coordinates>
        </Point>
      </Placemark>
      <Placemark>
        <name>AMSRWY09 NE Exit</name>
        <styleUrl>#icon-1899-0288D1-nodesc</styleUrl>
        <Point>
          <coordinates>
            6.7811896,53.4747693,0
          </coordinates>
        </Point>
      </Placemark>
      <Placemark>
        <name>AMSRWY09 NW</name>
        <styleUrl>#icon-1899-0288D1-nodesc</styleUrl>
        <Point>
          <coordinates>
            4.6354175,52.5857467,0
          </coordinates>
        </Point>
      </Placemark>
      <Placemark>
        <name>AMSRWY09 NW Exit</name>
        <styleUrl>#icon-1899-0288D1-nodesc</styleUrl>
        <Point>
          <coordinates>
            3.4913897,53.2284724,0
          </coordinates>
        </Point>
      </Placemark>
      <Placemark>
        <name>AMSRWY09 W exit</name>
        <styleUrl>#icon-1899-0288D1-nodesc</styleUrl>
        <Point>
          <coordinates>
            3.1668924,52.7509939,0
          </coordinates>
        </Point>
      </Placemark>
      <Placemark>
        <name>AMSRWY09 E</name>
        <styleUrl>#icon-1899-0288D1-nodesc</styleUrl>
        <Point>
          <coordinates>
            5.1709246,52.1740148,0
          </coordinates>
        </Point>
      </Placemark>
      <Placemark>
        <name>AMSRWY09 East Exit</name>
        <styleUrl>#icon-1899-0288D1-nodesc</styleUrl>
        <Point>
          <coordinates>
            6.8053622,52.46501,0
          </coordinates>
        </Point>
      </Placemark>
      <Placemark>
        <name>AMSRWY09 SE</name>
        <styleUrl>#icon-1899-0288D1-nodesc</styleUrl>
        <Point>
          <coordinates>
            5.3893602,52.0380632,0
          </coordinates>
        </Point>
      </Placemark>
      <Placemark>
        <name>AMSRWY09 E Epe</name>
        <styleUrl>#icon-1899-0288D1-nodesc</styleUrl>
        <Point>
          <coordinates>
            5.9606428,52.4097068,0
          </coordinates>
        </Point>
      </Placemark>
      <Placemark>
        <name>AMSRWY09 SE2</name>
        <styleUrl>#icon-1899-0288D1-nodesc</styleUrl>
        <Point>
          <coordinates>
            5.5672908,51.8841791,0
          </coordinates>
        </Point>
      </Placemark>
      <Placemark>
        <name>AMSRWY09 SE Exit</name>
        <styleUrl>#icon-1899-0288D1-nodesc</styleUrl>
        <Point>
          <coordinates>
            6.2456966,51.2572475,0
          </coordinates>
        </Point>
      </Placemark>
      <Placemark>
        <name>AMSRWY09 S</name>
        <styleUrl>#icon-1899-0288D1-nodesc</styleUrl>
        <Point>
          <coordinates>
            4.8958662,52.2380841,0
          </coordinates>
        </Point>
      </Placemark>
      <Placemark>
        <name>AMSRWY09 S2</name>
        <styleUrl>#icon-1899-0288D1-nodesc</styleUrl>
        <Point>
          <coordinates>
            4.937196,52.1654843,0
          </coordinates>
        </Point>
      </Placemark>
      <Placemark>
        <name>AMSRWY09 W2 Exit</name>
        <styleUrl>#icon-1899-0288D1-nodesc</styleUrl>
        <Point>
          <coordinates>
            2.5488291,51.8268052,0
          </coordinates>
        </Point>
      </Placemark>
      <Placemark>
        <name>AMSRWY09 SW</name>
        <styleUrl>#icon-1899-0288D1-nodesc</styleUrl>
        <Point>
          <coordinates>
            5.0809627,51.8358595,0
          </coordinates>
        </Point>
      </Placemark>
      <Placemark>
        <name>AMSRWY09 SW2</name>
        <styleUrl>#icon-1899-0288D1-nodesc</styleUrl>
        <Point>
          <coordinates>
            4.1547309,51.586579,0
          </coordinates>
        </Point>
      </Placemark>
      <Placemark>
        <name>AMSRWY09 SW Exit</name>
        <styleUrl>#icon-1899-0288D1-nodesc</styleUrl>
        <Point>
          <coordinates>
            3.6727055,51.3092632,0
          </coordinates>
        </Point>
      </Placemark>
      <Placemark>
        <name>AMSRWY09 S3</name>
        <styleUrl>#icon-1899-0288D1-nodesc</styleUrl>
        <Point>
          <coordinates>
            5.2190263,51.6078978,0
          </coordinates>
        </Point>
      </Placemark>
      <Placemark>
        <name>AMSRWY09 N4</name>
        <styleUrl>#icon-1899-0288D1-nodesc</styleUrl>
        <Point>
          <coordinates>
            5.1799268,52.5570988,0
          </coordinates>
        </Point>
      </Placemark>
      <Placemark>
        <name>AMSRWY09 S Exit</name>
        <styleUrl>#icon-1899-0288D1-nodesc</styleUrl>
        <Point>
          <coordinates>
            5.1087318,50.9756498,0
          </coordinates>
        </Point>
      </Placemark>
      <Placemark>
        <name>AMSRWY09 NE2</name>
        <styleUrl>#icon-1899-0288D1-nodesc</styleUrl>
        <Point>
          <coordinates>
            6.0072894,52.9460373,0
          </coordinates>
        </Point>
      </Placemark>
      <Placemark>
        <name>AMSRWY09 SE3</name>
        <styleUrl>#icon-1899-0288D1-nodesc</styleUrl>
        <Point>
          <coordinates>
            5.8511545,51.5114139,0
          </coordinates>
        </Point>
      </Placemark>
    </Folder>
    <Folder>
      <name>STAR AMS 04</name>
      <Placemark>
        <name>ILS 04</name>
        <styleUrl>#icon-1899-0288D1-labelson-nodesc</styleUrl>
        <Point>
          <coordinates>
            4.7192936,52.2547369,0
          </coordinates>
        </Point>
      </Placemark>
      <Placemark>
        <name>A04O</name>
        <styleUrl>#icon-1899-0288D1-labelson-nodesc</styleUrl>
        <Point>
          <coordinates>
            3.0954667,52.6744879,0
          </coordinates>
        </Point>
      </Placemark>
      <Placemark>
        <name>A04W</name>
        <styleUrl>#icon-1899-0288D1-labelson-nodesc</styleUrl>
        <Point>
          <coordinates>
            6.474787,52.6480241,0
          </coordinates>
        </Point>
      </Placemark>
      <Placemark>
        <name>A04Z</name>
        <styleUrl>#icon-1899-0288D1-labelson-nodesc</styleUrl>
        <Point>
          <coordinates>
            3.654229,51.3276788,0
          </coordinates>
        </Point>
      </Placemark>
      <Placemark>
        <name>A04Z1</name>
        <styleUrl>#icon-1899-0288D1-labelson-nodesc</styleUrl>
        <Point>
          <coordinates>
            3.7009209,51.8194183,0
          </coordinates>
        </Point>
      </Placemark>
      <Placemark>
        <name>A04Z2</name>
        <styleUrl>#icon-1899-0288D1-labelson-nodesc</styleUrl>
        <Point>
          <coordinates>
            4.1501391,52.2061866,0
          </coordinates>
        </Point>
      </Placemark>
      <Placemark>
        <name>A04Z3</name>
        <styleUrl>#icon-1899-0288D1-labelson-nodesc</styleUrl>
        <Point>
          <coordinates>
            4.6130353,52.2369745,0
          </coordinates>
        </Point>
      </Placemark>
      <Placemark>
        <name>AMS04</name>
        <styleUrl>#icon-1899-0288D1-labelson-nodesc</styleUrl>
        <Point>
          <coordinates>
            4.7930775,52.3071887,0
          </coordinates>
        </Point>
      </Placemark>
    </Folder>
  </Document>
</kml>
